CSS (TIANHE)            
1 48274U 21035A   24246.60467226  .00066093  00000+0  71139-3 0  9994
2 48274  41.4699 331.2952 0002054 347.2500  12.8287 15.62778318191206
